STARLINK-2474_new
1 18132C 21027AS  21326.16581458 -.00017674  00000-0 -11842-2 0  3261
2 18132  53.0567  12.9983 0001535  60.6984  28.8311 15.06415670    14
STARLINK-2474_old
1 28132C 21027AS  21325.13628542  .00004463  00000-0  29899-3 0  3254
2 28132  53.0564  17.6200 0001428  60.9020 202.3421 15.06399737    16
